NORAD_CAT_ID,OBJECT_NAME,OBJECT_TYPE,EPOCH,MEAN_MOTION,ECCENTRICITY,INCLINATION,RA_OF_ASC_NODE,ARG_OF_PERICENTER,MEAN_ANOMALY,BSTAR,MEAN_MOTION_DOT,MEAN_MOTION_DDOT,TLE_LINE0,TLE_LINE1,TLE_LINE2,SEMIMAJOR_AXIS,PERIOD,APOGEE,PERIGEE,DECAYED
52563.0,STARLINK-3942,PAYLOAD,2023-10-01 00:52:27,15.08838857,0.0001101,53.2168,172.4161,71.7983,288.3129,-2.325e-05,-6.58e-06,0.0,0 STARLINK-3942,1 52563U 22051AG  23274.03642508 -.00000658  00000-0 -23250-4 0  9994,2 52563  53.2168 172.4161 0001101  71.7983 288.3129 15.08838857 76984,6917.884,95.438,540.511,538.987,0.0
52563.0,STARLINK-3942,PAYLOAD,2023-10-01 10:24:45,15.08846028,0.0001499,53.2171,170.638,72.0359,288.0796,0.00011976,1.619e-05,0.0,0 STARLINK-3942,1 52563U 22051AG  23274.43386500  .00001619  00000-0  11976-3 0  9992,2 52563  53.2171 170.6380 0001499  72.0359 288.0796 15.08846028 76977,6917.862,95.437,540.764,538.69,0.0
52563.0,STARLINK-3942,PAYLOAD,2023-10-01 21:32:27,15.08852167,0.0001079,53.2159,168.5528,85.3442,274.7674,0.00044153,6.748e-05,0.0,0 STARLINK-3942,1 52563U 22051AG  23274.89754337  .00006748  00000-0  44153-3 0  9990,2 52563  53.2159 168.5528 0001079  85.3442 274.7674 15.08852167 77044,6917.843,95.437,540.455,538.962,0.0
52563.0,STARLINK-3942,PAYLOAD,2023-10-02 02:18:36,15.08864801,0.0001129,53.2158,167.6595,86.3251,273.787,0.0010036,0.00015731,0.0,0 STARLINK-3942,1 52563U 22051AG  23275.09626106  .00015731  00000-0  10036-2 0  9999,2 52563  53.2158 167.6595 0001129  86.3251 273.7870 15.08864801 77148,6917.805,95.436,540.451,538.889,0.0
52563.0,STARLINK-3942,PAYLOAD,2023-10-02 10:15:32,15.08845796,6.82e-05,53.2165,166.1746,122.8969,237.2089,0.00024458,3.608e-05,0.0,0 STARLINK-3942,1 52563U 22051AG  23275.42746115  .00003608  00000-0  24458-3 0  9993,2 52563  53.2165 166.1746 0000682 122.8969 237.2089 15.08845796 77197,6917.863,95.437,540.199,539.256,0.0
52563.0,STARLINK-3942,PAYLOAD,2023-10-03 10:06:20,15.0883069,0.0001604,53.2157,161.7127,94.316,265.8015,0.00036445,5.516e-05,0.0,0 STARLINK-3942,1 52563U 22051AG  23276.42107184  .00005516  00000-0  36445-3 0  9990,2 52563  53.2157 161.7127 0001604  94.3160 265.8015 15.08830690 77343,6917.909,95.438,540.883,538.664,0.0
52563.0,STARLINK-3942,PAYLOAD,2023-10-03 21:14:02,15.08837963,0.0001403,53.216,159.6319,95.6673,264.4479,0.00065541,0.00010158,0.0,0 STARLINK-3942,1 52563U 22051AG  23276.88475381  .00010158  00000-0  65541-3 0  9994,2 52563  53.2160 159.6319 0001403  95.6673 264.4479 15.08837963 77345,6917.887,95.438,540.722,538.781,0.0
52563.0,STARLINK-3942,PAYLOAD,2023-10-04 02:00:12,15.08848413,0.0001379,53.2158,158.7396,94.003,266.112,0.00094213,0.00014741,0.0,0 STARLINK-3942,1 52563U 22051AG  23277.08347231  .00014741  00000-0  94213-3 0  9999,2 52563  53.2158 158.7396 0001379  94.0030 266.1120 15.08848413 77444,6917.855,95.437,540.674,538.766,0.0
52563.0,STARLINK-3942,PAYLOAD,2023-10-04 21:04:49,15.08860244,0.0001535,53.2159,155.1725,83.7094,276.4073,0.00074988,0.00011673,0.0,0 STARLINK-3942,1 52563U 22051AG  23277.87834806  .00011673  00000-0  74988-3 0  9993,2 52563  53.2159 155.1725 0001535  83.7094 276.4073 15.08860244 77493,6917.819,95.436,540.745,538.622,0.0
52563.0,STARLINK-3942,PAYLOAD,2023-10-04 22:40:12,15.08861872,0.0001539,53.216,154.8752,83.3134,276.8033,0.00074994,0.00011675,0.0,0 STARLINK-3942,1 52563U 22051AG  23277.94458703  .00011675  00000-0  74994-3 0  9998,2 52563  53.2160 154.8752 0001539  83.3134 276.8033 15.08861872 77573,6917.814,95.436,540.743,538.614,0.0
52563.0,STARLINK-3942,PAYLOAD,2023-10-05 20:55:36,15.08851337,0.0001534,53.2164,150.7116,91.4272,268.6896,0.00040838,6.219e-05,0.0,0 STARLINK-3942,1 52563U 22051AG  23278.87194577  .00006219  00000-0  40838-3 0  9995,2 52563  53.2164 150.7116 0001534  91.4272 268.6896 15.08851337 77711,6917.846,95.437,540.772,538.65,0.0
52563.0,STARLINK-3942,PAYLOAD,2023-10-05 22:30:59,15.08847552,0.0001539,53.2164,150.4101,83.8307,276.286,0.00029871,4.47e-05,0.0,0 STARLINK-3942,1 52563U 22051AG  23278.93818600  .00004470  00000-0  29871-3 0  9993,2 52563  53.2164 150.4101 0001539  83.8307 276.2860 15.08847552 77654,6917.857,95.437,540.787,538.658,0.0
52563.0,STARLINK-3942,PAYLOAD,2023-10-06 08:03:18,15.08834685,0.0001728,53.2168,148.6267,76.4345,283.684,-5.2097e-05,-1.117e-05,0.0,0 STARLINK-3942,1 52563U 22051AG  23279.33562966 -.00001117  00000-0 -52097-4 0  9993,2 52563  53.2168 148.6267 0001728  76.4345 283.6840 15.08834685 77787,6917.897,95.438,540.957,538.566,0.0
52563.0,STARLINK-3942,PAYLOAD,2023-10-06 22:21:46,15.08834997,0.0001628,53.2167,145.9579,104.1908,255.9265,-3.9633e-05,-9.19e-06,0.0,0 STARLINK-3942,1 52563U 22051AG  23279.93179245 -.00000919  00000-0 -39633-4 0  9993,2 52563  53.2167 145.9579 0001628 104.1908 255.9265 15.08834997 77807,6917.896,95.438,540.887,538.634,0.0
52563.0,STARLINK-3942,PAYLOAD,2023-10-07 14:15:38,15.0884188,0.0001698,53.2175,142.9835,106.8746,253.2432,0.00023646,3.477e-05,0.0,0 STARLINK-3942,1 52563U 22051AG  23280.59419461  .00003477  00000-0  23646-3 0  9990,2 52563  53.2175 142.9835 0001698 106.8746 253.2432 15.08841880 77901,6917.875,95.437,540.914,538.565,0.0
52563.0,STARLINK-3942,PAYLOAD,2023-10-07 20:37:11,15.08842581,0.0001673,53.2172,141.7936,107.6836,252.4338,0.00033244,5.007e-05,0.0,0 STARLINK-3942,1 52563U 22051AG  23280.85915587  .00005007  00000-0  33244-3 0  9995,2 52563  53.2172 141.7936 0001673 107.6836 252.4338 15.08842581 78017,6917.872,95.437,540.895,538.58,0.0
52563.0,STARLINK-3942,PAYLOAD,2023-10-07 22:12:34,15.08846577,0.0001499,53.2167,141.4955,97.5185,262.5977,0.00041171,6.272e-05,0.0,0 STARLINK-3942,1 52563U 22051AG  23280.92539502  .00006272  00000-0  41171-3 0  9995,2 52563  53.2167 141.4955 0001499  97.5185 262.5977 15.08846577 77951,6917.86,95.437,540.762,538.688,0.0
52563.0,STARLINK-3942,PAYLOAD,2023-10-08 07:44:52,15.08846986,0.0001362,53.2159,139.7091,92.2473,267.8676,0.00036418,5.514e-05,0.0,0 STARLINK-3942,1 52563U 22051AG  23281.32283547  .00005514  00000-0  36418-3 0  9991,2 52563  53.2159 139.7091 0001362  92.2473 267.8676 15.08846986 78010,6917.859,95.437,540.666,538.782,0.0
52563.0,STARLINK-3942,PAYLOAD,2023-10-08 18:52:35,15.08841249,0.0001376,53.216,137.6283,92.925,267.1899,0.0001006,1.314e-05,0.0,0 STARLINK-3942,1 52563U 22051AG  23281.78651625  .00001314  00000-0  10060-3 0  9996,2 52563  53.2160 137.6283 0001376  92.9250 267.1899 15.08841249 78159,6917.877,95.437,540.693,538.79,0.0
52563.0,STARLINK-3942,PAYLOAD,2023-10-08 20:27:58,15.08845877,0.000145,53.2156,137.3309,89.1336,270.9823,0.00024688,3.644e-05,0.0,0 STARLINK-3942,1 52563U 22051AG  23281.85275557  .00003644  00000-0  24688-3 0  9999,2 52563  53.2156 137.3309 0001450  89.1336 270.9823 15.08845877 78099,6917.862,95.437,540.731,538.724,0.0
52563.0,STARLINK-3942,PAYLOAD,2023-10-09 07:35:40,15.08838789,0.0001686,53.216,135.2501,81.5906,278.5278,3.3011e-05,2.37e-06,0.0,0 STARLINK-3942,1 52563U 22051AG  23282.31643632  .00000237  00000-0  33011-4 0  9990,2 52563  53.2160 135.2501 0001686  81.5906 278.5278 15.08838789 78165,6917.884,95.438,540.915,538.583,0.0
52563.0,STARLINK-3942,PAYLOAD,2023-10-09 20:18:45,15.08838278,0.0001569,53.2161,132.8698,80.2474,279.8695,-1.2346e-06,-3.08e-06,0.0,0 STARLINK-3942,1 52563U 22051AG  23282.84636090 -.00000308  00000-0 -12346-5 0  9998,2 52563  53.2161 132.8698 0001569  80.2474 279.8695 15.08838278 78319,6917.886,95.438,540.836,538.665,0.0
52563.0,STARLINK-3942,PAYLOAD,2023-10-09 21:54:08,15.08840368,0.0001681,53.217,132.5727,81.8616,278.2566,3.9562e-05,3.42e-06,0.0,0 STARLINK-3942,1 52563U 22051AG  23282.91260004  .00000342  00000-0  39562-4 0  9998,2 52563  53.2170 132.5727 0001681  81.8616 278.2566 15.08840368 78255,6917.879,95.438,540.907,538.581,0.0
52563.0,STARLINK-3942,PAYLOAD,2023-10-10 13:48:00,15.08829621,0.0001422,53.2167,129.5991,87.6912,272.4243,-1.9651e-06,-3.19e-06,0.0,0 STARLINK-3942,1 52563U 22051AG  23283.57500765 -.00000319  00000-0 -19651-5 0  9996,2 52563  53.2167 129.5991 0001422  87.6912 272.4243 15.08829621 78354,6917.912,95.438,540.761,538.793,0.0
52563.0,STARLINK-3942,PAYLOAD,2023-10-10 20:09:32,15.08838172,0.0001415,53.2156,128.4103,87.6524,272.463,1.9306e-05,1.9e-07,0.0,0 STARLINK-3942,1 52563U 22051AG  23283.83996501  .00000019  00000-0  19306-4 0  9993,2 52563  53.2156 128.4103 0001415  87.6524 272.4630 15.08838172 78391,6917.886,95.438,540.73,538.772,0.0
52563.0,STARLINK-3942,PAYLOAD,2023-10-10 23:20:19,15.0884117,0.0001448,53.2157,127.8158,82.0413,278.0743,8.6435e-05,1.088e-05,0.0,0 STARLINK-3942,1 52563U 22051AG  23283.97244268  .00001088  00000-0  86435-4 0  9998,2 52563  53.2157 127.8158 0001448  82.0413 278.0743 15.08841170 78486,6917.877,95.437,540.744,538.74,0.0
52563.0,STARLINK-3942,PAYLOAD,2023-10-11 13:38:47,15.08843244,0.0001419,53.2157,125.1391,82.9657,277.1497,0.00026101,3.869e-05,0.0,0 STARLINK-3942,1 52563U 22051AG  23284.56860415  .00003869  00000-0  26101-3 0  9994,2 52563  53.2157 125.1391 0001419  82.9657 277.1497 15.08843244 78506,6917.87,95.437,540.717,538.754,0.0
52563.0,STARLINK-3942,PAYLOAD,2023-10-11 20:00:19,15.08857728,0.0001364,53.216,123.949,89.6838,270.431,0.00031017,4.654e-05,0.0,0 STARLINK-3942,1 52563U 22051AG  23284.83355716  .00004654  00000-0  31017-3 0  9992,2 52563  53.2160 123.9490 0001364  89.6838 270.4310 15.08857728 78614,6917.826,95.436,540.635,538.748,0.0
52563.0,STARLINK-3942,PAYLOAD,2023-10-12 08:43:24,15.08850239,0.0001371,53.2154,121.5703,85.0675,275.0473,0.0002721,4.046e-05,0.0,0 STARLINK-3942,1 52563U 22051AG  23285.36347924  .00004046  00000-0  27210-3 0  9998,2 52563  53.2154 121.5703 0001371  85.0675 275.0473 15.08850239 78627,6917.849,95.437,540.663,538.766,0.0
52563.0,STARLINK-3942,PAYLOAD,2023-10-12 19:51:06,15.08846865,0.000128,53.2152,119.489,79.8399,280.2737,0.00019873,2.877e-05,0.0,0 STARLINK-3942,1 52563U 22051AG  23285.82715959  .00002877  00000-0  19873-3 0  9992,2 52563  53.2152 119.4890 0001280  79.8399 280.2737 15.08846865 78767,6917.859,95.437,540.61,538.839,0.0
